GLOBALSTAR M001 [-]     
1 25162U 98008A   23324.84315569 -.00000055  00000+0  32179-3 0  9991
2 25162  52.0021 204.8408 0002540 100.6410 337.6418 12.38173394172561
GLOBALSTAR M004 [-]     
1 25163U 98008B   23324.88299939 -.00000098  00000+0  32001-4 0  9990
2 25163  52.0016   6.1472 0003362  97.0457  74.1376 12.63342040189099
GLOBALSTAR M002 [-]     
1 25164U 98008C   23324.90140413 -.00000062  00000+0  27659-3 0  9999
2 25164  52.0011 240.1136 0001264 128.9823 231.1110 11.61497416117336
GLOBALSTAR M003 [-]     
1 25165U 98008D   23324.75294721  .00000042  00000+0  14044-2 0  9995
2 25165  51.9789 319.5700 0007708 215.7994 315.5887 12.11954388163564
GLOBALSTAR M014 [-]     
1 25306U 98023A   23324.91822314 -.00000075  00000+0  54255-4 0  9999
2 25306  51.9808 175.3676 0001785  58.9030 314.3409 11.65462162124218
GLOBALSTAR M006 [-]     
1 25307U 98023B   23324.92378655 -.00000075  00000+0  61741-5 0  9994
2 25307  51.9923 206.3643 0003837 138.6910 233.6268 11.58157007150293
GLOBALSTAR M015 [-]     
1 25308U 98023C   23324.66391869 -.00000047  00000+0  60449-3 0  9999
2 25308  51.9827 279.1571 0012339 130.6049  40.6370 11.48858244128045
GLOBALSTAR M008 [-]     
1 25309U 98023D   23324.78984869 -.00000073  00000+0  18044-3 0  9994
2 25309  51.9980  63.3200 0002799  59.2833  82.4892 12.36031861166810
